#dP2024  8  3  0  0  0.00000000      96 __u+U IGS20 EXT  IAC
## 2325 518400.00000000   900.00000000 60525 0.0000000000000
+   53   G02G03G04G05G06G07G08G09G10G11G12G13G14G15G16G17G18
+        G19G20G21G22G23G24G25G26G27G28G29G30G31G32R01R02R03
+        R04R05R07R08R09R11R12R14R15R16R17R18R19R20R21R22R24
+        R25R26  0  0  0  0  0  0  0  0  0  0  0  0  0  0  0
+          0  0  0  0  0  0  0  0  0  0  0  0  0  0  0  0  0
++         8  7  8  9  9  7  8  7  9  8  8  8  9  9  7  9  7
++         9  9  8  9  8  9  7  7  8  8  9  7  8  8  8  9  8
++         8  8  8  8  9  7  8  9  8  7  9  7  9 10  8  9  8
++         8  8  0  0  0  0  0  0  0  0  0  0  0  0  0  0  0
++         0  0  0  0  0  0  0  0  0  0  0  0  0  0  0  0  0
%c M  cc GPS ccc cccc cccc cccc cccc ccccc ccccc ccccc ccccc
%c cc cc ccc ccc cccc cccc cccc cccc ccccc ccccc ccccc ccccc
%f  0.0000000  0.000000000  0.00000000000  0.000000000000000
%f  0.0000000  0.000000000  0.00000000000  0.000000000000000
%i    0    0    0    0      0      0      0      0         0
%i    0    0    0    0      0      0      0      0         0
/* IAC                                ULTRA-RAPID PREDICTION
/* S/V CLOCKS ARE ALIGNED TO GNSS TIME                      
/* G:C1WC2W R:C1PC2P E:C1XC5X C:C2IC6I J:C1CC2S             
/* PCV:IGS20_2317 OL/AL:FES2004  NONE     YN ORB:CoN CLK:CoN
*  2024 08 03  6 30  0.00000000
PG02  14410.856346 -22103.097311    370.277022   -386.533776
PG03   9273.154013 -13036.347214 -21344.537993    484.861352
PG04   3442.630460 -21242.685086 -15461.128811    416.658157
PG05 -23297.444404   5804.192849  11256.671464   -181.922510
PG06 -13665.738452  -5937.246707 -21934.783704    122.379953
PG07    667.749560 -20717.037142  16865.953832    -58.072176
PG08  11030.009596 -11712.298771  20951.223759    300.711126
PG09  -6543.173321 -25021.719848  -6003.280140    298.772711
PG10  21600.967769  10698.956235  11726.992238    -83.230009
PG11 -20234.638243   7510.598509 -15412.372551   -715.628259
PG12 -13031.852687  11757.448878 -20199.059603   -527.383507
PG13 -14712.590371   2396.735293  21771.481293    668.537779
PG14 -18405.689866 -13164.799658  14124.524127    463.682979
PG15  -9359.156419  13432.178476  20374.200342    188.297106
PG16  25418.932514   -218.885134   8107.665744   -219.004011
PG17 -13308.675449 -21216.723201  -8170.021825    663.745661
PG18  -1130.517217  20155.870751  17160.841124   -642.818638
PG19 -15828.332539 -14638.360921 -15946.524822    519.372746
PG20 -26388.828237   1964.070795    957.223211    372.080771
PG21  16770.485142 -19132.668348   5779.380242    105.140589
PG22 -23111.440795 -10581.363176   7573.181866    -47.016764
PG23  10524.051577  14405.261590  19770.808441    288.616720
PG24 -14611.824797  21844.703991   1240.450105   -485.332556
PG25   -313.255668  15663.463312 -21795.113752    499.043648
PG26  25877.589739   4883.330160  -4907.780616    107.962039
PG27  16063.663082    441.982219  20927.579579    -32.432160
PG28  12742.765354   8316.878112 -21779.345430   -357.445436
PG29   1733.048144  24880.038284  -8989.232945   -586.198282
PG30  -8858.155553 -13864.683600  20960.824753   -346.698674
PG31  19254.072362  -3182.036758 -18409.556736   -226.227050
PG32  15494.551428  19393.144675  -9509.639829   -608.407186
PR01 -19116.777749  -9599.585314  13902.553955     93.334671
PR02 -10576.619182   4245.572903  22854.827769    -23.956816
PR03   3699.534521  16711.192795  18980.514257    104.936584
PR04  15385.288111  19750.677324   4952.134264    248.158166
PR05  18958.043249  12373.308905 -11770.909036    135.501957
PR07  -4206.691816 -16957.557364 -18526.443560     88.011521
PR08 -15695.642008 -19544.801363  -4571.521942     -6.256151
PR09  22376.025126  -9926.943478   7040.017993    201.258508
PR11  -7883.389312  -9031.602116  22532.758828     16.137950
PR12 -23119.148781    468.410953  10788.396156     43.188837
PR14  -9205.925244  12552.222517 -20196.186043     26.752224
PR15   9559.111968   8546.581463 -22022.964357     77.236336
PR16  23007.532492   -546.910209 -10942.529172     27.936077
PR17  -6461.496336  24584.374237   1787.869437    110.212602
PR18   1959.874736  19183.030608  16733.134818    155.151974
PR19   8823.150468   6114.139455  23135.441242   -286.199815
PR20  12809.871820 -15380.897798  15798.253787   -117.099863
PR21   6938.678960 -24534.521676  -1257.986550   -122.844416
PR22  -2437.830251 -18488.026921 -17377.541658     76.907871
PR24 -12335.460614  16309.508381 -15216.737867    -66.284177
PR25   7243.337586 -24383.455580  -2097.634260    -99.264424
PR26 -15078.966244 -19673.150420  -6053.953651      7.654714
*  2024 08 03  6 45  0.00000000
PG02  14553.449265 -21835.660900   3247.966790   -386.527019
PG03  11602.519995 -12734.847214 -20346.646336    484.875262
PG04   4316.136901 -19565.413745 -17351.040191    416.664955
PG05 -24448.967446   5550.536832   8700.227960   -181.923720
PG06 -12173.477859  -7978.152829 -22155.300287    122.358517
PG07   1855.323221 -22022.526369  14910.985464    -58.066197
PG08  12184.736587  -9542.218863  21442.535701    300.724771
PG09  -5958.093919 -24381.188495  -8691.305312    298.786512
PG10  20164.668483  10683.484495  14074.580986    -83.239526
PG11 -19201.483307   5934.486172 -17307.603783   -715.633701
PG12 -15169.114915  11288.779951 -18911.697324   -527.386248
PG13 -15403.042566    -21.561211  21447.625111    668.539852
PG14 -16674.281380 -13157.407835  16124.682637    463.690888
PG15 -10782.297244  11400.583163  20905.492348    188.300974
PG16  26170.414203    139.349986   5417.782503   -218.994557
PG17 -13381.144835 -22079.420790  -5434.499026    663.737698
PG18  -2361.666357  21551.702722  15209.128234   -642.821777
PG19 -16218.247149 -16261.808041 -13857.441430    519.377428
PG20 -26351.433999   1674.552184  -1894.153370    372.080392
PG21  16638.818959 -18291.319144   8534.451817    105.138615
PG22 -22109.537680 -10644.129436  10195.651454    -47.020651
PG23   8214.001104  14313.675614  20883.083894    288.624584
PG24 -14751.250341  21356.540542   4044.002473   -485.333466
PG25  -2728.325678  15460.442206 -21747.975475    499.043882
PG26  25181.812132   5169.964144  -7559.271180    107.955415
PG27  17013.700118   2641.591598  20045.166754    -32.432777
PG28  11357.124073  10377.474020 -21661.098324   -357.459210
PG29   1134.123498  23852.686123 -11534.983656   -586.196343
PG30  -7419.575000 -15709.035348  20174.518581   -346.692636
PG31  18064.423159  -1408.774633 -19767.356375   -226.226718
PG32  15700.075551  20354.950766  -6871.298624   -608.404977
PR01 -20340.311651 -10559.125591  11212.097725     93.335641
PR02 -12561.111711   2317.312584  22108.327609    -23.957042
PR03   2021.273118  14946.494117  20631.816524    104.937174
PR04  14943.518599  19062.193199   8048.635646    248.159720
PR05  19974.255988  13161.926667  -8884.610367    135.502475
PR07  -2550.221838 -15213.396045 -20262.360135     88.012143
PR08 -15259.035748 -18898.319694  -7677.917763     -6.256320
PR09  22995.348489 -10208.951922   3944.431288    201.260292
PR11  -5185.936787  -9800.070403  22987.909665     16.136773
PR12 -21651.964812    164.152049  13507.495687     43.189195
PR14 -11479.568592  13289.363929 -18491.875005     26.752156
PR15   6892.379429   9280.993513 -22711.032600     77.235888
PR16  21510.688665   -242.449456 -13660.253611     27.936288
PR17  -6285.392055  24651.611392  -1447.692367    110.215393
PR18   1601.243948  21070.941511  14329.091711    155.153591
PR19   8027.919218   8824.016401  22541.564216   -286.201162
PR20  12045.084003 -13429.443509  18025.538464   -117.100281
PR21   6729.474228 -24545.083060   1976.709862   -122.847279
PR22  -1957.834867 -20441.900071 -15103.917812     76.901212
PR24 -11720.844812  14380.849652 -17479.358901    -66.285615
PR25   7117.937850 -24485.605911   1112.059884    -99.265661
PR26 -14515.600765 -18908.033304  -9094.322298      7.656411
EOF
